NORAD_CAT_ID,OBJECT_NAME,OBJECT_TYPE,EPOCH,MEAN_MOTION,ECCENTRICITY,INCLINATION,RA_OF_ASC_NODE,ARG_OF_PERICENTER,MEAN_ANOMALY,BSTAR,MEAN_MOTION_DOT,MEAN_MOTION_DDOT,TLE_LINE0,TLE_LINE1,TLE_LINE2,SEMIMAJOR_AXIS,PERIOD,APOGEE,PERIGEE,DECAYED
51977.0,STARLINK-3660,PAYLOAD,2022-07-13 22:00:00,15.08832568,0.0001355,53.2149,251.1568,58.0182,142.9956,0.00039762,6.045e-05,0.0,0 STARLINK-3660,1 51977U 22025X   22194.91667824  .00006045  00000-0  39762-3 0  9996,2 51977  53.2149 251.1568 0001355  58.0182 142.9956 15.08832568 20926,6917.903,95.438,540.705,538.831,0.0
51977.0,STARLINK-3660,PAYLOAD,2022-07-14 14:00:01,15.08828461,0.0001599,53.2147,248.1657,53.081,171.1202,0.00019358,2.793e-05,0.0,0 STARLINK-3660,1 51977U 22025X   22195.58334491  .00002793  00000-0  19358-3 0  9996,2 51977  53.2147 248.1657 0001599  53.0810 171.1202 15.08828461  1308,6917.916,95.438,540.887,538.674,0.0
51977.0,STARLINK-3660,PAYLOAD,2022-07-14 22:00:00,15.08813899,0.0001517,53.2147,246.6674,59.0744,176.7165,0.00078925,0.00012286,0.0,0 STARLINK-3660,1 51977U 22025X   22195.91667824  .00012286  00000-0  78925-3 0  9995,2 51977  53.2147 246.6674 0001517  59.0744 176.7165 15.08813899 21076,6917.96,95.439,540.875,538.776,0.0
51977.0,STARLINK-3660,PAYLOAD,2022-07-15 14:00:01,15.08809557,0.0001716,53.2146,243.6763,53.4183,205.5316,0.0031882,0.00050776,0.0,0 STARLINK-3660,1 51977U 22025X   22196.58334491  .00050776  00000-0  31882-2 0  9996,2 51977  53.2146 243.6763 0001716  53.4183 205.5316 15.08809557  1306,6917.973000000001,95.439,541.026,538.651,0.0
51977.0,STARLINK-3660,PAYLOAD,2022-07-15 22:00:00,15.08826944,0.0001583,53.2149,242.178,58.6848,211.8532,0.0014078,0.0002218,0.0,0 STARLINK-3660,1 51977U 22025X   22196.91667824  .00022180  00000-0  14078-2 0  9998,2 51977  53.2149 242.1780 0001583  58.6848 211.8532 15.08826944  1308,6917.92,95.438,540.88,538.69,0.0
51977.0,STARLINK-3660,PAYLOAD,2022-07-16 06:00:00,15.08859634,0.000165,53.215,240.682,59.7803,222.3423,-0.0012087,-0.00019483,0.0,0 STARLINK-3660,1 51977U 22025X   22197.25001157 -.00019483  00000-0 -12087-2 0  9999,2 51977  53.2150 240.6820 0001650  59.7803 222.3423 15.08859634 21272,6917.82,95.436,540.827,538.544,0.0
51977.0,STARLINK-3660,PAYLOAD,2022-07-16 14:00:01,15.08838651,0.000172,53.2149,239.1867,52.4295,241.3057,0.0014075,0.00022183,0.0,0 STARLINK-3660,1 51977U 22025X   22197.58334491  .00022183  00000-0  14075-2 0  9993,2 51977  53.2149 239.1867 0001720  52.4295 241.3057 15.08838651  1309,6917.885,95.438,540.939,538.56,0.0
51977.0,STARLINK-3660,PAYLOAD,2022-07-16 22:00:00,15.08822949,0.0001533,53.2152,237.6884,57.304,248.0489,0.0011747,0.00018448,0.0,0 STARLINK-3660,1 51977U 22025X   22197.91667824  .00018448  00000-0  11747-2 0  9991,2 51977  53.2152 237.6884 0001533  57.3040 248.0489 15.08822949  1305,6917.933000000001,95.439,540.8580000000002,538.737,0.0
51977.0,STARLINK-3660,PAYLOAD,2022-07-17 06:00:00,15.08853095,0.0001575,53.2154,236.1925,56.8824,260.0491,-0.0012812,-0.00020628,0.0,0 STARLINK-3660,1 51977U 22025X   22198.25001157 -.00020628  00000-0 -12812-2 0  9999,2 51977  53.2154 236.1925 0001575  56.8824 260.0491 15.08853095 21425,6917.84,95.437,540.795,538.616,0.0
51977.0,STARLINK-3660,PAYLOAD,2022-07-17 14:00:01,15.08823615,0.0001668,53.2152,234.6971,50.2623,278.2659,0.0024685,0.00039199,0.0,0 STARLINK-3660,1 51977U 22025X   22198.58334491  .00039199  00000-0  24685-2 0  9997,2 51977  53.2152 234.6971 0001668  50.2623 278.2659 15.08823615  1302,6917.93,95.439,540.9490000000002,538.6419999999998,0.0
51977.0,STARLINK-3660,PAYLOAD,2022-07-17 22:00:00,15.08820983,0.0001504,53.2155,233.1989,57.5309,282.5911,0.0022928,0.00036372,0.0,0 STARLINK-3660,1 51977U 22025X   22198.91667824  .00036372  00000-0  22928-2 0  9991,2 51977  53.2155 233.1989 0001504  57.5309 282.5911 15.08820983  1302,6917.939,95.439,540.844,538.763,0.0
51977.0,STARLINK-3660,PAYLOAD,2022-07-18 06:00:00,15.08862714,0.0001564999999999,53.2157,231.7033,56.4013,295.3074,-0.0016884,-0.00027075,0.0,0 STARLINK-3660,1 51977U 22025X   22199.25001157 -.00027075  00000-0 -16884-2 0  9996,2 51977  53.2157 231.7033 0001565  56.4013 295.3074 15.08862714 21576,6917.811,95.436,540.759,538.5930000000002,0.0
51977.0,STARLINK-3660,PAYLOAD,2022-07-18 14:00:01,15.08847079,0.0001609,53.2153,230.2076,49.1282,314.187,-0.00084293,-0.00013681,0.0,0 STARLINK-3660,1 51977U 22025X   22199.58334491 -.00013681  00000-0 -84293-3 0  9990,2 51977  53.2153 230.2076 0001609  49.1282 314.1870 15.08847079  1309,6917.859,95.437,540.837,538.611,0.0
51977.0,STARLINK-3660,PAYLOAD,2022-07-18 22:00:00,15.08802312,0.0001381,53.2154,228.7095,56.0511,318.8732,0.0022673,0.00035943,0.0,0 STARLINK-3660,1 51977U 22025X   22199.91667824  .00035943  00000-0  22673-2 0  9992,2 51977  53.2154 228.7095 0001381  56.0511 318.8732 15.08802312  1301,6917.996,95.44,540.816,538.905,0.0
51977.0,STARLINK-3660,PAYLOAD,2022-07-19 06:00:00,15.08843792,0.0001483,53.2156,227.2142,54.3897,332.1018,-0.0018965,-0.00030347,0.0,0 STARLINK-3660,1 51977U 22025X   22200.25001157 -.00030347  00000-0 -18965-2 0  9997,2 51977  53.2156 227.2142 0001483  54.3897 332.1018 15.08843792 21722,6917.869000000002,95.437,540.76,538.7080000000002,0.0
51977.0,STARLINK-3660,PAYLOAD,2022-07-19 14:00:01,15.0882078,0.000156,53.2151,225.7184,48.3638,349.7126,0.001329,0.00020915,0.0,0 STARLINK-3660,1 51977U 22025X   22200.58334491  .00020915  00000-0  13290-2 0  9997,2 51977  53.2151 225.7184 0001560  48.3638 349.7126 15.08820780  1306,6917.939,95.439,540.883,538.725,0.0
51977.0,STARLINK-3660,PAYLOAD,2022-07-19 22:00:00,15.08823894,0.0001444,53.2161,224.2138,55.0812,354.5891,7.8383e-05,9.59e-06,0.0,0 STARLINK-3660,1 51977U 22025X   22200.91667824  .00000959  00000-0  78383-4 0  9995,2 51977  53.2161 224.2138 0001444  55.0812 354.5891 15.08823894  1302,6917.93,95.439,540.794,538.7959999999998,0.0
51977.0,STARLINK-3660,PAYLOAD,2022-07-20 14:00:01,15.08836218,0.0001593,53.2148,221.2293,49.1459,23.6991,0.00097187,0.00015212,0.0,0 STARLINK-3660,1 51977U 22025X   22201.58334491  .00015212  00000-0  97187-3 0  9990,2 51977  53.2148 221.2293 0001593  49.1459  23.6991 15.08836218 21921,6917.892,95.438,540.859,538.655,0.0
51977.0,STARLINK-3660,PAYLOAD,2022-07-20 22:00:01,15.08821599,0.0001431,53.2148,219.7311,56.6648,27.8463,0.0024454999999999,0.00038827,0.0,0 STARLINK-3660,1 51977U 22025X   22201.91668981  .00038827  00000-0  24455-2 0  9995,2 51977  53.2148 219.7311 0001431  56.6648  27.8463 15.08821599  1304,6917.937,95.439,540.7919999999998,538.812,0.0
51977.0,STARLINK-3660,PAYLOAD,2022-07-21 06:00:00,15.0885672,0.0001537,53.2148,218.2361,53.1773,42.8602,-0.0041231,-0.00065342,0.0,0 STARLINK-3660,1 51977U 22025X   22202.25001157 -.00065342  00000-0 -41231-2 0  9994,2 51977  53.2148 218.2361 0001537  53.1773  42.8602 15.08856720 22030,6917.829000000002,95.436,540.758,538.631,0.0
51977.0,STARLINK-3660,PAYLOAD,2022-07-21 14:00:01,15.08817324,0.0001575999999999,53.2146,216.74,46.4004,61.2829,0.00037237,5.64e-05,0.0,0 STARLINK-3660,1 51977U 22025X   22202.58335648  .00005640  00000-0  37237-3 0  9990,2 51977  53.2146 216.7400 0001576  46.4004  61.2829 15.08817324  1300,6917.95,95.439,540.905,538.724,0.0
51977.0,STARLINK-3660,PAYLOAD,2022-07-21 22:00:00,15.08800706,0.0001437,53.2146,215.242,53.9077,65.2925,0.0025844,0.00041038,0.0,0 STARLINK-3660,1 51977U 22025X   22202.91667824  .00041038  00000-0  25844-2 0  9992,2 51977  53.2146 215.2420 0001437  53.9077  65.2925 15.08800706  1302,6918.0,95.44,540.86,538.871,0.0
51977.0,STARLINK-3660,PAYLOAD,2022-07-22 06:00:00,15.08836393,0.000161,53.2147,213.747,51.3866,79.3795,-0.0015937,-0.0002556,0.0,0 STARLINK-3660,1 51977U 22025X   22203.25001157 -.00025560  00000-0 -15937-2 0  9997,2 51977  53.2147 213.7470 0001610  51.3866  79.3795 15.08836393  1304,6917.891,95.438,540.87,538.643,0.0
51977.0,STARLINK-3660,PAYLOAD,2022-07-22 12:00:00,15.08808852,0.0001675,53.2147,212.6254,46.6772,2.7789,0.0025967,0.00041245,0.0,0 STARLINK-3660,1 51977U 22025X   22203.50001157  .00041245  00000-0  25967-2 0  9995,2 51977  53.2147 212.6254 0001675  46.6772   2.7789 15.08808852 22211,6917.976,95.44,540.999,538.682,0.0
51977.0,STARLINK-3660,PAYLOAD,2022-07-22 22:00:00,15.08812212,0.0001541999999999,53.2147,210.7528,53.7796,100.1535,0.0024833,0.00039425,0.0,0 STARLINK-3660,1 51977U 22025X   22203.91667824  .00039425  00000-0  24833-2 0  9997,2 51977  53.2147 210.7528 0001542  53.7796 100.1535 15.08812212  1306,6917.965,95.439,540.8969999999998,538.764,0.0
51977.0,STARLINK-3660,PAYLOAD,2022-07-23 08:00:01,15.08830367,0.0001779,53.215,208.8833,49.1867,209.2275,0.00032273,4.851e-05,0.0,0 STARLINK-3660,1 51977U 22025X   22204.33334491  .00004851  00000-0  32273-3 0  9998,2 51977  53.2150 208.8833 0001779  49.1867 209.2275 15.08830367 22347,6917.91,95.438,541.006,538.544,0.0
51977.0,STARLINK-3660,PAYLOAD,2022-07-23 14:00:01,15.08844643,0.0001761,53.2147,207.7615,47.6708,129.4894,-0.00061505,-0.00010065,0.0,0 STARLINK-3660,1 51977U 22025X   22204.58335648 -.00010065  00000-0 -61505-3 0  9996,2 51977  53.2147 207.7615 0001761  47.6708 129.4894 15.08844643  1302,6917.866,95.437,540.9490000000002,538.513,0.0
51977.0,STARLINK-3660,PAYLOAD,2022-07-23 22:00:00,15.08823572,0.0001629999999999,53.2149,206.2636,54.4358,134.263,0.0023577,0.00037418,0.0,0 STARLINK-3660,1 51977U 22025X   22204.91667824  .00037418  00000-0  23577-2 0  9992,2 51977  53.2149 206.2636 0001630  54.4358 134.2630 15.08823572  1303,6917.931,95.439,540.923,538.668,0.0
51977.0,STARLINK-3660,PAYLOAD,2022-07-24 14:00:01,15.08857141,0.0001814,53.2149,203.2722,48.8892,162.9953,-0.001272,-0.00020485,0.0,0 STARLINK-3660,1 51977U 22025X   22205.58334491 -.00020485  00000-0 -12720-2 0  9993,2 51977  53.2149 203.2722 0001814  48.8892 162.9953 15.08857141  1305,6917.828,95.436,540.948,538.438,0.0
